OBJECT_NAME,OBJECT_ID,EPOCH,MEAN_MOTION,ECCENTRICITY,INCLINATION,RA_OF_ASC_NODE,ARG_OF_PERICENTER,MEAN_ANOMALY,EPHEMERIS_TYPE,CLASSIFICATION_TYPE,NORAD_CAT_ID,ELEMENT_SET_NO,REV_AT_EPOCH,BSTAR,MEAN_MOTION_DOT,MEAN_MOTION_DDOT
SENTINEL-2B,2017-013A,2026-05-26T05:59:09.074112,14.30821616,.00012304,98.5691,221.3329,90.6997,269.4327,0,U,42063,999,48150,.52902844E-4,.95E-6,0
ECHOSTAR 23,2017-014A,2026-05-26T04:53:16.414944,1.00270001,.00021839,0.0193,313.7891,116.8248,136.5816,0,U,42070,999,3370,0,0,0
WGS F9 (USA 275),2017-016A,2026-05-26T05:21:12.045312,1.00271756,.00002183,0.0144,275.6061,97.8831,298.5991,0,U,42075,999,3367,0,-.95E-6,0
SES-10,2017-017A,2026-05-26T03:10:24.606336,1.00271340,.00028238,0.0259,36.9330,36.0919,151.3960,0,U,42432,999,3353,0,-.271E-5,0
CHINASAT 16 (SJ-13),2017-018A,2026-05-25T19:40:09.835392,1.00274112,.00036475,0.1010,91.4507,143.8431,53.6483,0,U,42662,999,3352,0,-.352E-5,0
KOREASAT 7,2017-023A,2026-05-26T05:57:31.062816,1.00271627,.00007338,0.0200,351.5990,74.0651,23.4470,0,U,42691,999,3315,0,-.36E-5,0
SGDC,2017-023B,2026-05-25T12:47:03.491520,1.00272824,.00028918,0.0432,95.6752,337.4765,286.8779,0,U,42692,999,3318,0,-.25E-5,0
GSAT-9,2017-024A,2026-05-26T00:44:18.412224,1.00268908,.00020443,0.0456,263.7572,164.5935,283.6255,0,U,42695,999,3307,0,-.285E-5,0
INMARSAT 5-F4,2017-025A,2026-05-26T00:32:43.975680,1.00272624,.00003144,0.0181,337.2898,69.6686,261.3287,0,U,42698,999,3305,0,.76E-6,0
SES-15,2017-026A,2026-05-25T23:39:49.401216,1.00270498,.00010174,0.0200,332.4762,47.6089,89.2845,0,U,42709,999,721,0,.61E-6,0
COSMOS 2518,2017-027A,2026-05-23T16:46:37.310880,2.00884831,.69850857,63.0598,251.3391,273.6369,15.8328,0,U,42719,999,6591,0,-.1252E-4,0
QZS-2 (MICHIBIKI-2),2017-028A,2026-05-25T13:25:01.121664,1.00289658,.07606261,39.4625,243.4883,269.0192,72.4917,0,U,42738,999,739,0,-.23E-5,0
VIASAT-2,2017-029A,2026-05-26T03:22:00.496992,1.00271901,.00001297,0.0145,288.5501,127.2174,168.5698,0,U,42740,999,3298,0,-.264E-5,0
EUTELSAT 172B,2017-029B,2026-05-26T06:13:37.019136,1.00272269,.00001068,0.0213,177.9305,170.2023,161.1073,0,U,42741,999,3352,0,-.4E-7,0
GSAT-19,2017-031A,2026-05-26T05:47:38.770944,1.00271648,.00070401,0.0785,94.1503,336.4432,308.0168,0,U,42747,999,3292,0,.127E-5,0
ECHOSTAR 21,2017-032A,2026-05-26T05:27:33.935040,1.00272027,.0002392,1.7737,354.3205,69.6840,271.9355,0,U,42749,999,3287,0,.64E-6,0
HXMT (HUIYAN),2017-034A,2026-05-26T07:03:55.879200,15.18250283,.00314515,43.0143,304.9289,3.8716,356.2370,0,U,42758,999,49433,.29704401E-3,.6033E-4,0
CARTOSAT-2E,2017-036C,2026-05-26T05:51:04.135104,15.19282781,.00035126,97.4285,206.4055,42.6431,317.5075,0,U,42767,999,49481,.26310885E-3,.5484E-4,0
BULGARIASAT-1,2017-038A,2026-05-26T01:49:38.676576,1.00267537,.00037021,0.0213,56.8964,23.4146,192.6498,0,U,42801,999,3262,0,0,0
IRIDIUM 113,2017-039A,2026-05-26T06:19:07.341024,14.34217673,.00023255,86.3962,331.3471,91.8040,268.3422,0,U,42803,999,46804,.15834587E-4,.64E-6,0
IRIDIUM 123,2017-039B,2026-05-26T02:17:26.813472,14.34219063,.0002242,86.3986,2.8734,82.6867,277.4584,0,U,42804,999,46678,.84416311E-4,.256E-5,0
IRIDIUM 120,2017-039C,2026-05-26T06:10:00.108480,14.34218961,.00020281,86.3951,331.1350,88.1203,272.0226,0,U,42805,999,46803,.23109629E-4,.84E-6,0
IRIDIUM 115,2017-039D,2026-05-26T05:02:26.123712,14.43280815,.00022137,86.4489,331.2805,82.8180,277.3272,0,U,42806,999,47109,.19526295E-4,.86E-6,0
IRIDIUM 118,2017-039E,2026-05-26T03:03:06.936768,14.34217829,.00022266,86.3984,2.8583,86.7724,273.3726,0,U,42807,999,46678,.7847768E-5,.42E-6,0
IRIDIUM 117,2017-039F,2026-05-26T03:30:30.928320,14.34218053,.00022466,86.3983,2.8082,83.5388,276.6063,0,U,42808,999,46681,.16643218E-4,.66E-6,0
IRIDIUM 126,2017-039G,2026-05-26T02:26:34.894464,14.34217300,.00023041,86.3985,2.8776,86.4827,273.6632,0,U,42809,999,46678,.206869E-4,.78E-6,0
IRIDIUM 124,2017-039H,2026-05-26T03:27:08.155296,14.43279875,.00020978,86.4460,299.5800,91.3659,268.7782,0,U,42810,999,47193,-.4289629E-5,.6E-7,0
IRIDIUM 128,2017-039J,2026-05-26T03:53:42.681984,14.34217663,.0001962,86.3982,34.3568,79.7631,280.3786,0,U,42811,999,46682,-.1064013E-5,.17E-6,0
IRIDIUM 121,2017-039K,2026-05-26T02:53:59.398368,14.34219724,.00020744,86.3985,2.8971,86.6093,273.5340,0,U,42812,999,46666,.82359793E-4,.25E-5,0
HELLAS-SAT 3,2017-040A,2026-05-26T00:27:44.455392,1.00274614,.00054531,0.0884,72.3264,331.6596,245.5577,0,U,42814,999,3258,0,.153E-5,0
GSAT-17,2017-040B,2026-05-26T02:25:57.550656,1.00271102,.00023961,0.0723,91.5250,223.1436,58.9856,0,U,42815,999,3256,0,-.256E-5,0
