SENTINEL-2B             
1 42063U 17013A   26146.24941058  .00000095  00000+0  52903-4 0  9995
2 42063  98.5691 221.3329 0001230  90.6997 269.4327 14.30821616481506
ECHOSTAR 23             
1 42070U 17014A   26146.20366221  .00000000  00000+0  00000+0 0  9995
2 42070   0.0193 313.7891 0002183 116.8248 136.5816  1.00270001 33708
WGS F9 (USA 275)        
1 42075U 17016A   26146.22305608 -.00000095  00000+0  00000+0 0  9991
2 42075   0.0144 275.6061 0000218  97.8831 298.5991  1.00271756 33674
SES-10                  
1 42432U 17017A   26146.13222924 -.00000271  00000+0  00000+0 0  9994
2 42432   0.0259  36.9330 0002823  36.0919 151.3960  1.00271340 33537
CHINASAT 16 (SJ-13)     
1 42662U 17018A   26145.81955828 -.00000352  00000+0  00000+0 0  9990
2 42662   0.1010  91.4507 0003647 143.8431  53.6483  1.00274112 33524
KOREASAT 7              
1 42691U 17023A   26146.24827619 -.00000360  00000+0  00000+0 0  9991
2 42691   0.0200 351.5990 0000733  74.0651  23.4470  1.00271627 33152
SGDC                    
1 42692U 17023B   26145.53267930 -.00000250  00000+0  00000+0 0  9995
2 42692   0.0432  95.6752 0002891 337.4765 286.8779  1.00272824 33181
GSAT-9                  
1 42695U 17024A   26146.03076866 -.00000285  00000+0  00000+0 0  9999
2 42695   0.0456 263.7572 0002044 164.5935 283.6255  1.00268908 33076
INMARSAT 5-F4           
1 42698U 17025A   26146.02273120  .00000076  00000+0  00000+0 0  9991
2 42698   0.0181 337.2898 0000314  69.6686 261.3287  1.00272624 33054
SES-15                  
1 42709U 17026A   26145.98598844  .00000061  00000+0  00000+0 0  9996
2 42709   0.0200 332.4762 0001017  47.6089  89.2845  1.00270498  7213
COSMOS 2518             
1 42719U 17027A   26143.69904295 -.00001252  00000+0  00000+0 0  9999
2 42719  63.0598 251.3391 6985085 273.6369  15.8328  2.00884831 65919
QZS-2 (MICHIBIKI-2)     
1 42738U 17028A   26145.55904076 -.00000230  00000+0  00000+0 0  9990
2 42738  39.4625 243.4883 0760626 269.0192  72.4917  1.00289658  7391
VIASAT-2                
1 42740U 17029A   26146.14028353 -.00000264  00000+0  00000+0 0  9992
2 42740   0.0145 288.5501 0000129 127.2174 168.5698  1.00271901 32980
EUTELSAT 172B           
1 42741U 17029B   26146.25945624 -.00000004  00000+0  00000+0 0  9996
2 42741   0.0213 177.9305 0000106 170.2023 161.1073  1.00272269 33521
GSAT-19                 
1 42747U 17031A   26146.24142096  .00000127  00000+0  00000+0 0  9991
2 42747   0.0785  94.1503 0007040 336.4432 308.0168  1.00271648 32925
ECHOSTAR 21             
1 42749U 17032A   26146.22747610  .00000064  00000+0  00000+0 0  9995
2 42749   1.7737 354.3205 0002392  69.6840 271.9355  1.00272027 32877
HXMT (HUIYAN)           
1 42758U 17034A   26146.29439675  .00006033  00000+0  29704-3 0  9991
2 42758  43.0143 304.9289 0031451   3.8716 356.2370 15.18250283494331
CARTOSAT-2E             
1 42767U 17036C   26146.24379786  .00005484  00000+0  26311-3 0  9994
2 42767  97.4285 206.4055 0003512  42.6431 317.5075 15.19282781494814
BULGARIASAT-1           
1 42801U 17038A   26146.07614209  .00000000  00000+0  00000+0 0  9990
2 42801   0.0213  56.8964 0003702  23.4146 192.6498  1.00267537 32626
IRIDIUM 113             
1 42803U 17039A   26146.26327941  .00000064  00000+0  15835-4 0  9995
2 42803  86.3962 331.3471 0002325  91.8040 268.3422 14.34217673468046
IRIDIUM 123             
1 42804U 17039B   26146.09544923  .00000256  00000+0  84416-4 0  9992
2 42804  86.3986   2.8734 0002242  82.6867 277.4584 14.34219063466782
IRIDIUM 120             
1 42805U 17039C   26146.25694570  .00000084  00000+0  23110-4 0  9998
2 42805  86.3951 331.1350 0002028  88.1203 272.0226 14.34218961468034
IRIDIUM 115             
1 42806U 17039D   26146.21002458  .00000086  00000+0  19526-4 0  9991
2 42806  86.4489 331.2805 0002213  82.8180 277.3272 14.43280815471095
IRIDIUM 118             
1 42807U 17039E   26146.12716362  .00000042  00000+0  78478-5 0  9992
2 42807  86.3984   2.8583 0002226  86.7724 273.3726 14.34217829466785
IRIDIUM 117             
1 42808U 17039F   26146.14619130  .00000066  00000+0  16643-4 0  9991
2 42808  86.3983   2.8082 0002246  83.5388 276.6063 14.34218053466816
IRIDIUM 126             
1 42809U 17039G   26146.10179276  .00000078  00000+0  20687-4 0  9996
2 42809  86.3985   2.8776 0002304  86.4827 273.6632 14.34217300466783
IRIDIUM 124             
1 42810U 17039H   26146.14384439  .00000006  00000+0 -42896-5 0  9990
2 42810  86.4460 299.5800 0002097  91.3659 268.7782 14.43279875471933
IRIDIUM 128             
1 42811U 17039J   26146.16229956  .00000017  00000+0 -10640-5 0  9999
2 42811  86.3982  34.3568 0001962  79.7631 280.3786 14.34217663466821
IRIDIUM 121             
1 42812U 17039K   26146.12082637  .00000250  00000+0  82360-4 0  9994
2 42812  86.3985   2.8971 0002074  86.6093 273.5340 14.34219724466669
HELLAS-SAT 3            
1 42814U 17040A   26146.01926453  .00000153  00000+0  00000+0 0  9997
2 42814   0.0884  72.3264 0005453 331.6596 245.5577  1.00274614 32583
GSAT-17                 
1 42815U 17040B   26146.10136054 -.00000256  00000+0  00000+0 0  9993
2 42815   0.0723  91.5250 0002396 223.1436  58.9856  1.00271102 32568
